{
    "links": {
        "self": "http://www.neowsapp.com/rest/v1/neo/3892748?api_key=iIulBulltgU6a56xZRHN4H3l9WmuAYTsLGpBGhQ2"
    },
    "id": "3892748",
    "neo_reference_id": "3892748",
    "name": "(2019 VO4)",
    "designation": "2019 VO4",
    "nasa_jpl_url": "http://ssd.jpl.nasa.gov/sbdb.cgi?sstr=3892748",
    "absolute_magnitude_h": 24.5,
    "estimated_diameter": {
        "kilometers": {
            "estimated_diameter_min": 0.0334622374,
            "estimated_diameter_max": 0.0748238376
        },
        "meters": {
            "estimated_diameter_min": 33.4622374455,
            "estimated_diameter_max": 74.8238376074
        },
        "miles": {
            "estimated_diameter_min": 0.0207924639,
            "estimated_diameter_max": 0.0464933628
        },
        "feet": {
            "estimated_diameter_min": 109.7842471007,
            "estimated_diameter_max": 245.4850393757
        }
    },
    "is_potentially_hazardous_asteroid": false,
    "close_approach_data": [
        {
            "close_approach_date": "2019-10-29",
            "close_approach_date_full": "2019-Oct-29 01:42",
            "epoch_date_close_approach": 1572313320000,
            "relative_velocity": {
                "kilometers_per_second": "4.604322183",
                "kilometers_per_hour": "16575.5598589589",
                "miles_per_hour": "10299.4082912515"
            },
            "miss_distance": {
                "astronomical": "0.1715704301",
                "lunar": "66.7408973089",
                "kilometers": "25666570.897943887",
                "miles": "15948467.6157121606"
            },
            "orbiting_body": "Earth"
        }
    ],
    "orbital_data": {
        "orbit_id": "3",
        "orbit_determination_date": "2019-11-27 09:36:04",
        "first_observation_date": "2019-11-05",
        "last_observation_date": "2019-11-26",
        "data_arc_in_days": 21,
        "observations_used": 23,
        "orbit_uncertainty": "8",
        "minimum_orbit_intersection": ".16291",
        "jupiter_tisserand_invariant": "3.252",
        "epoch_osculation": "2458804.5",
        "eccentricity": ".5374753797113312",
        "semi_major_axis": "2.498001131304489",
        "inclination": ".1531845631034293",
        "ascending_node_longitude": "179.9190336780823",
        "orbital_period": "1442.073422851949",
        "perihelion_distance": "1.155387024737274",
        "perihelion_argument": "219.5548020953561",
        "aphelion_distance": "3.840615237871704",
        "perihelion_time": "2458786.977061274751",
        "mean_anomaly": "4.374436031567639",
        "mean_motion": ".2496405483210681",
        "equinox": "J2000",
        "orbit_class": {
            "orbit_class_type": "AMO",
            "orbit_class_description": "Near-Earth asteroid orbits similar to that of 1221 Amor",
            "orbit_class_range": "1.017 AU < q (perihelion) < 1.3 AU"
        }
    },
    "is_sentry_object": false
}